246P/NEAT,e,16.0294,77.8263,177.9647,4.041062,0.1213279,0.29033122,89.7526,03/09.0/2023,2000,g 10.5,4.0
# From MPEC 2021-F20
247P/LINEAR,e,13.6592,54.0307,47.4034,3.967152,0.1247343,0.62478599,194.4024,03/09.0/2023,2000,g 16.5,2.0
# From MPC 75730
248P/Gibbs,e,6.3512,207.8127,209.8741,5.989361,0.0672409,0.63916905,298.0754,03/09.0/2023,2000,g 14.0,4.0
# From MPEC 2022-YN2
249P/LINEAR,e,8.3863,239.0734,65.7415,2.763765,0.2145123,0.81964204,210.7860,03/09.0/2023,2000,g 15.5,4.0
# From MPC110497
250P/Larson,e,13.1509,73.3531,46.0791,3.769224,0.1346871,0.39887666,252.1463,03/09.0/2023,2000,g 14.5,4.0
# From MPC104795
251P/LINEAR,e,23.3863,219.3441,31.2495,3.513243,0.1496724,0.50448254,308.9214,03/09.0/2023,2000,g 16.5,2.0
# From MPEC 2021-S45
252P/LINEAR,e,10.4139,190.9129,343.3989,3.051062,0.1849386,0.67115118,112.0794,03/09.0/2023,2000,g 17.5,4.0
# From MPEC 2020-FB5
253P/PANSTARRS,e,4.9434,146.8768,230.7272,3.464119,0.1528674,0.41458954,269.5284,03/09.0/2023,2000,g 14.5,4.0
# From MPEC 2023-BF4
254P/McNaught,e,32.5641,129.1859,219.6733,4.616164,0.0993762,0.31960508,88.4090,03/09.0/2023,2000,g 11.0,4.0
# From MPEC 2021-UA9
255P/Levy,e,13.4114,275.6598,186.0129,2.942185,0.1952986,0.71155575,35.6811,03/09.0/2023,2000,g 14.1,4.0
# From MPEC 2023-E49
256P/LINEAR,e,27.6193,81.3300,124.1925,4.639639,0.0986229,0.41798994,359.6814,03/09.0/2023,2000,g 14.0,2.0
# From MPEC 2023-A50
257P/Catalina,e,20.2197,207.7147,117.7688,3.764521,0.1349396,0.42992523,122.7184,03/09.0/2023,2000,g 11.5,4.0
# From MPEC 2021-U31
258P/PANSTARRS,e,6.7473,126.2357,25.7355,4.393691,0.1070187,0.20849778,106.4472,03/09.0/2023,2000,g 13.0,4.0
# From MPC106349
259P/Garradd,e,15.8969,51.4316,257.5417,2.729379,0.2185790,0.33886419,86.0813,03/09.0/2023,2000,g 15.5,4.0
# From MPEC 2022-O01
260P/McNaught,e,15.0553,349.3351,18.4516,3.623321,0.1429038,0.60933971,182.2148,03/09.0/2023,2000,g 13.5,4.0
# From MPEC 2021-J28
261P/Larson,e,6.0719,291.1051,67.2777,3.490501,0.1511376,0.42330522,205.2679,03/09.0/2023,2000,g 14.0,4.0
# From MPC 82322
262P/McNaught-Russell,e,29.2933,217.8629,171.0619,6.871339,0.0547195,0.81633281,204.8885,03/09.0/2023,2000,g 13.5,4.0
# From MPEC 2023-E49
263P/Gibbs,e,11.5217,105.5093,35.0451,3.041781,0.1857857,0.59356021,6.9512,03/09.0/2023,2000,g 18.0,4.0
# From MPC114608
264P/Larsen,e,25.5745,220.0081,346.6725,3.882159,0.1288529,0.37684443,169.4583,03/09.0/2023,2000,g 13.0,4.0
# From MPC 79870
265P/LINEAR,e,14.3613,342.9269,33.4937,4.256839,0.1122208,0.64760226,85.0396,03/09.0/2023,2000,g 14.5,4.0
# From MPEC 2021-F20
266P/Christensen,e,3.4269,4.9898,97.6711,3.531137,0.1485362,0.34002745,156.4925,03/09.0/2023,2000,g 14.7,4.0
# From MPC114608
267P/LONEOS,e,6.1439,228.5660,114.2454,3.210463,0.1713375,0.61436263,289.2784,03/09.0/2023,2000,g 19.5,4.0
# From MPC 92277
268P/Bernardi,e,15.6912,126.2653,359.8221,4.588160,0.1002874,0.47685913,294.7361,03/09.0/2023,2000,g 14.0,4.0
# From MPC104795
269P/Jedicke,e,7.0816,241.7517,225.6844,7.067610,0.0524560,0.43177165,161.6414,03/09.0/2023,2000,g 10.0,4.0
# From MPC 88332
270P/Gehrels,e,2.9245,223.0387,209.7662,6.657770,0.0573734,0.46918813,204.0708,03/09.0/2023,2000,g  8.0,4.0
# From MPC 92277
271P/van Houten-Lemmon,e,6.8718,9.3153,36.4322,7.035556,0.0528149,0.39581345,185.8853,03/09.0/2023,2000,g 11.0,4.0
# From MPEC 2023-D41
272P/NEAT,e,18.0728,109.4624,27.8925,4.461700,0.1045812,0.45490098,24.5739,03/09.0/2023,2000,g 16.0,2.0
# From MPC 82723
273P/Pons-Gambart,e,136.6642,320.3924,20.2913,31.98239,0.0054493,0.97438878,0.0000,12/21.9025/2012,2000,g 11.5,4.0
# From MPEC 2023-C45
274P/Tombaugh-Tenagra,e,15.8156,81.3280,38.4725,4.377359,0.1076182,0.43962840,36.0015,03/09.0/2023,2000,g 13.0,4.0
# From MPC 81862
275P/Hermann,e,21.2693,348.7530,173.9449,5.780576,0.0709165,0.71299044,265.6231,03/09.0/2023,2000,g 17.0,4.0
# From MPEC 2023-A50
276P/Vorobjov,e,14.8114,211.3454,199.4743,5.326399,0.0801777,0.26813264,308.3149,03/09.0/2023,2000,g 11.5,4.0
# From MPEC 2021-F20
277P/LINEAR,e,16.7798,276.3004,152.3400,3.853479,0.1302941,0.50619694,104.0473,03/09.0/2023,2000,g 15.1,4.0
# From MPEC 2021-S45
278P/McNaught,e,6.6958,15.3788,237.5769,3.681425,0.1395341,0.43706113,126.7539,03/09.0/2023,2000,g 14.0,4.0
# From MPEC 2022-K19
279P/LaSagra,e,5.0523,346.2332,5.8579,3.573835,0.1458822,0.39893355,353.9341,03/09.0/2023,2000,g 14.0,4.0
# From MPEC 2022-K19
280P/Larsen,e,11.7721,131.3870,104.7281,4.530078,0.1022223,0.41719564,344.8033,03/09.0/2023,2000,g 12.5,4.0
# From MPEC 2023-D41
281P/MOSS,e,4.7181,87.1783,26.6409,4.878165,0.0914786,0.17295538,3.2550,03/09.0/2023,2000,g 11.0,4.0
# From MPC133426
282P/,e,5.8117,9.2954,217.6088,4.237986,0.1129704,0.18800731,56.5518,03/09.0/2023,2000,g 13.5,2.0
# From MPEC 2022-K19
283P/Spacewatch,e,14.4557,161.1268,22.2119,4.135233,0.1172071,0.48442290,64.1301,03/09.0/2023,2000,g 16.0,2.0
# From MPEC 2023-D41
284P/McNaught,e,11.8608,144.2638,202.4373,3.676286,0.1398267,0.37531954,75.8474,03/09.0/2023,2000,g 13.0,4.0
# From MPEC 2023-B57
285P/LINEAR,e,25.0381,185.5069,178.4145,4.510561,0.1028864,0.61882344,5.7347,03/09.0/2023,2000,g 15.0,4.0
# From MPEC 2022-X67
286P/Christensen,e,17.0398,283.8655,24.9123,4.114430,0.1180972,0.42635778,35.4738,03/09.0/2023,2000,g 14.0,4.0
# From MPEC 2023-A50
287P/Christensen,e,16.3217,139.0428,189.1212,4.163538,0.1160140,0.27124581,346.1880,03/09.0/2023,2000,g 13.5,4.0
# From MPC133426
288P/,e,3.2384,83.1234,280.2065,3.048195,0.1851995,0.20049950,68.9607,03/09.0/2023,2000,g 16.0,2.0
# From MPEC 2022-K19
289P/Blanpain,e,5.8993,68.8875,9.8402,3.045367,0.1854576,0.68608652,217.6678,03/09.0/2023,2000,g 19.0,4.0
# From MPC 95214
290P/Jager,e,20.0330,302.6667,181.8450,6.217268,0.0635777,0.62728097,211.8926,03/09.0/2023,2000,g 10.5,4.0
# From MPEC 2023-CD7
291P/NEAT,e,6.3074,237.6613,173.5314,4.540908,0.1018568,0.43508242,354.2818,03/09.0/2023,2000,g 13.0,4.0
# From MPEC 2022-K19
292P/Li,e,24.2954,90.9216,319.5410,6.101561,0.0653947,0.58966725,217.0726,03/09.0/2023,2000,g 12.5,4.0
# From MPEC 2022-L66
293P/Spacewatch,e,9.0604,78.3986,40.9426,3.640661,0.1418841,0.41851201,114.9026,03/09.0/2023,2000,g 14.5,4.0
# From MPEC 2020-SI8
294P/LINEAR,e,17.8092,310.9585,236.4932,3.186356,0.1732856,0.60355966,206.5563,03/09.0/2023,2000,g 15.5,4.0
# From MPEC 2022-K19
295P/LINEAR,e,21.0743,7.4334,72.8940,5.304666,0.0806709,0.61712976,260.6051,03/09.0/2023,2000,g 12.0,4.0
# From MPEC 2021-N06
296P/Garradd,e,25.2494,263.5506,349.9813,3.491717,0.1510586,0.47891266,136.3483,03/09.0/2023,2000,g 14.0,4.0
# From MPC102956
297P/Beshore,e,10.3004,96.3571,134.9753,3.466888,0.1526843,0.32120169,117.5575,03/09.0/2023,2000,g 15.0,4.0
# From MPC114609
298P/Christensen,e,7.8706,52.8192,100.6203,3.590023,0.1448966,0.38624653,132.4601,03/09.0/2023,2000,g 15.0,4.0
# From MPEC 2023-E49
299P/Catalina-PANSTARRS,e,10.4674,271.5999,323.7527,4.388494,0.1072089,0.28091871,315.1072,03/09.0/2023,2000,g 11.5,4.0
# From MPEC 2023-E49
300P/Catalina,e,5.6740,95.6241,222.9529,2.698559,0.2223342,0.69166073,352.6379,03/09.0/2023,2000,g 16.0,4.0
# From MPC 89014
301P/LINEAR-NEAT,e,10.3376,351.1691,193.5438,5.741136,0.0716485,0.58549152,223.8169,03/09.0/2023,2000,g 13.0,4.0
# From MPEC 2022-K19
302P/Lemmon-PANSTARRS,e,6.0335,121.7301,208.4940,4.272787,0.1115931,0.23022050,278.4681,03/09.0/2023,2000,g 12.5,4.0
# From MPC 92278
303P/NEAT,e,7.0197,347.9637,356.9911,5.043530,0.0870166,0.51087361,266.1669,03/09.0/2023,2000,g 13.5,4.0
# From MPEC 2022-K19
304P/Ory,e,2.6074,58.9079,335.2674,3.150695,0.1762359,0.60095579,165.3113,03/09.0/2023,2000,g 16.5,4.0
# From MPC101100
305P/Skiff,e,11.6683,240.1027,147.3744,4.639672,0.0986219,0.69399248,298.9441,03/09.0/2023,2000,g 18.0,4.0
# From MPC 92278
306P/LINEAR,e,8.3083,341.3729,0.8888,3.124184,0.1784840,0.59310449,203.6051,03/09.0/2023,2000,g 19.0,4.0
# From MPC 92278
307P/LINEAR,e,4.4352,158.1621,222.1708,5.789357,0.0707552,0.67555492,211.9062,03/09.0/2023,2000,g 15.0,4.0
# From MPEC 2022-C56
308P/Lagerkvist-Carsenty,e,4.8546,63.0396,333.6771,6.599712,0.0581322,0.36462938,166.1663,03/09.0/2023,2000,g 13.0,2.0
# From MPC 94284
309P/LINEAR,e,17.0239,10.1443,49.9445,4.373210,0.1077714,0.61822334,318.3911,03/09.0/2023,2000,g 15.0,4.0
# From MPEC 2022-QD9
310P/Hill,e,13.1277,8.9210,31.7106,4.184104,0.1151596,0.42255027,333.6272,03/09.0/2023,2000,g 13.5,4.0
# From MPEC 2021-BE3
311P/PANSTARRS,e,4.9700,279.2116,144.4889,2.188239,0.3044823,0.11591318,268.7798,03/09.0/2023,2000,g 17.0,4.0
# From MPEC 2021-BE3
312P/NEAT,e,19.7626,144.6708,207.6616,3.469770,0.1524941,0.42765868,136.4509,03/09.0/2023,2000,g 16.0,4.0
# From MPEC 2021-S45
313P/Gibbs,e,10.9788,105.9518,254.8677,3.164112,0.1751162,0.23493525,185.0674,03/09.0/2023,2000,g 15.0,4.0
# From MPC105243
314P/Montani,e,3.9866,267.6070,213.9141,7.257071,0.0504153,0.41689259,118.1308,03/09.0/2023,2000,g  9.5,4.0
# From MPEC 2021-N06
315P/LONEOS,e,17.7349,68.7619,65.7457,4.939914,0.0897687,0.52107284,206.0436,03/09.0/2023,2000,g 11.0,4.0
# From MPC 92279
316P/LONEOS-Christensen,e,9.8282,246.2169,191.5749,4.388199,0.1072197,0.15609561,294.7109,03/09.0/2023,2000,g 13.5,4.0
# From MPEC 2020-C98
317P/WISE,e,11.9543,275.4809,334.8292,2.962287,0.1933140,0.57061546,172.8581,03/09.0/2023,2000,g 17.5,4.0
# From MPC102103
318P/McNaught-Hartley,e,17.8891,35.5031,313.3410,7.505434,0.0479336,0.67499598,128.9773,03/09.0/2023,2000,g  8.5,6.0
# From MPC 97499
319P/Catalina-McNaught,e,15.0955,111.3614,203.6607,3.564960,0.1464273,0.66653160,50.1680,03/09.0/2023,2000,g 15.0,4.0
# From MPC 96281
320P/McNaught,e,4.9050,295.9481,0.7850,3.094389,0.1810680,0.68519542,141.4402,03/09.0/2023,2000,g 20.5,4.0
# From MPC105243
321P/SOHO,e,20.0823,165.0181,172.7462,2.423094,0.2613056,0.98107784,0.0000,10/26.6032/2023,2000,g 20.0,4.0
# From MPC102103
322P/SOHO,e,11.4652,351.4996,56.9129,2.507465,0.2482285,0.97997551,0.0000,08/21.0857/2023,2000,g 19.0,4.0
# From MPEC 2016-Y36
323P/SOHO,e,5.3186,324.4097,353.0319,2.583302,0.2373785,0.98474522,0.0000,03/14.4289/2025,2000,g 20.0,4.0
# From MPEC 2021-W31
